NORAD_CAT_ID,OBJECT_NAME,OBJECT_TYPE,EPOCH,MEAN_MOTION,ECCENTRICITY,INCLINATION,RA_OF_ASC_NODE,ARG_OF_PERICENTER,MEAN_ANOMALY,BSTAR,MEAN_MOTION_DOT,MEAN_MOTION_DDOT,TLE_LINE0,TLE_LINE1,TLE_LINE2,SEMIMAJOR_AXIS,PERIOD,APOGEE,PERIGEE,DECAYED
53909.0,STARLINK-4796,PAYLOAD,2022-12-21 14:00:01,15.11720987,0.0001522,53.2175,185.1533,60.2576,199.3481,-0.072203,-0.01145877,0.0,0 STARLINK-4796,1 53909U 22119Z   22355.58334491 -.01145877  00000-0 -72203-1 0  9995,2 53909  53.2175 185.1533 0001522  60.2576 199.3481 15.11720987 14149,6909.0880000000025,95.256,532.005,529.9019999999998,0.0
53909.0,STARLINK-4796,PAYLOAD,2022-12-22 14:00:01,15.091725199999996,0.0001445,53.2175,180.6527,59.8897,240.4753,-0.029057,-0.00439312,0.0,0 STARLINK-4796,1 53909U 22119Z   22356.58334491 -.00439312  00000-0 -29057-1 0  9994,2 53909  53.2175 180.6527 0001445  59.8897 240.4753 15.09172520  1301,6916.864000000001,95.417,539.729,537.73,0.0
53909.0,STARLINK-4796,PAYLOAD,2022-12-22 22:00:00,15.08835857,0.0001667,53.2174,179.1576,50.6689,261.4937,0.00013717,1.895e-05,0.0,0 STARLINK-4796,1 53909U 22119Z   22356.91667824  .00001895  00000-0  13717-3 0  9997,2 53909  53.2174 179.1576 0001667  50.6689 261.4937 15.08835857 14355,6917.893,95.438,540.911,538.605,0.0
53909.0,STARLINK-4796,PAYLOAD,2022-12-23 00:00:00,15.0883568,0.0001652,53.2172,178.7834,50.0249,355.0357,0.00018946,2.728e-05,0.0,0 STARLINK-4796,1 53909U 22119Z   22357.00001157  .00002728  00000-0  18946-3 0  9994,2 53909  53.2172 178.7834 0001652  50.0249 355.0357 15.08835680  1306,6917.894,95.438,540.901,538.616,0.0
53909.0,STARLINK-4796,PAYLOAD,2022-12-23 14:00:01,15.088643,0.0001529,53.2135,176.1649,61.3654,273.9981,-0.005415,-0.00085503,0.0,0 STARLINK-4796,1 53909U 22119Z   22357.58334491 -.00085503  00000-0 -54150-2 0  9997,2 53909  53.2135 176.1649 0001529  61.3654 273.9981 15.08864300  1301,6917.806,95.436,540.729,538.613,0.0
53909.0,STARLINK-4796,PAYLOAD,2022-12-23 22:00:01,15.0879274,0.000171,53.2135,174.6699,55.0348,291.9853,-0.00064347,-0.00010501,0.0,0 STARLINK-4796,1 53909U 22119Z   22357.91668981 -.00010501  00000-0 -64347-3 0  9994,2 53909  53.2135 174.6699 0001710  55.0348 291.9853 15.08792740 14503,6918.025,95.441,541.073,538.707,0.0
53909.0,STARLINK-4796,PAYLOAD,2022-12-24 14:00:01,15.08839475,0.0001528,53.2139,171.6759,61.8299,308.1894,-9.3114e-05,-1.77e-05,0.0,0 STARLINK-4796,1 53909U 22119Z   22358.58334491 -.00001770  00000-0 -93114-4 0  9997,2 53909  53.2139 171.6759 0001528  61.8299 308.1894 15.08839475 14602,6917.882,95.438,540.804,538.69,0.0
53909.0,STARLINK-4796,PAYLOAD,2022-12-24 22:00:00,15.08819267,0.0001628,53.2138,170.1809,53.9998,327.6208,0.0026769,0.00042548,0.0,0 STARLINK-4796,1 53909U 22119Z   22358.91667824  .00042548  00000-0  26769-2 0  9999,2 53909  53.2138 170.1809 0001628  53.9998 327.6208 15.08819267  1305,6917.944,95.439,540.935,538.683,0.0
53909.0,STARLINK-4796,PAYLOAD,2022-12-25 14:00:01,15.08863385,0.0001501999999999,53.2141,167.1868,61.7118,343.0917,-0.0016409,-0.00026325,0.0,0 STARLINK-4796,1 53909U 22119Z   22359.58334491 -.00026325  00000-0 -16409-2 0  9991,2 53909  53.2141 167.1868 0001502  61.7118 343.0917 15.08863385  1301,6917.809,95.436,540.7130000000002,538.635,0.0
53909.0,STARLINK-4796,PAYLOAD,2022-12-25 22:00:00,15.0882786,0.0001604,53.2138,165.6917,54.4765,1.9451,0.0027196,0.00043246,0.0,0 STARLINK-4796,1 53909U 22119Z   22359.91667824  .00043246  00000-0  27196-2 0  9991,2 53909  53.2138 165.6917 0001604  54.4765   1.9451 15.08827860 14805,6917.917,95.438,540.8919999999998,538.673,0.0
53909.0,STARLINK-4796,PAYLOAD,2022-12-26 00:00:00,15.08846413,0.0001602,53.2136,165.3172,53.9316,95.3843,0.00076169,0.00011857,0.0,0 STARLINK-4796,1 53909U 22119Z   22360.00001157  .00011857  00000-0  76169-3 0  9992,2 53909  53.2136 165.3172 0001602  53.9316  95.3843 15.08846413  1305,6917.861,95.437,540.8340000000002,538.618,0.0
53909.0,STARLINK-4796,PAYLOAD,2022-12-26 04:06:37,15.08837472,0.0001503,53.2154,164.5473,56.272,303.8415,0.00012786,1.747e-05,0.0,0 STARLINK-4796,1 53909U 22119Z   22360.17127238  .00001747  00000-0  12786-3 0  9991,2 53909  53.2154 164.5473 0001503  56.2720 303.8415 15.08837472 14845,6917.888000000001,95.438,540.793,538.7130000000002,0.0
53909.0,STARLINK-4796,PAYLOAD,2022-12-26 13:38:57,15.08814639,0.0001674,53.2155,162.7631,61.4749,298.6412,0.00045446,6.947e-05,0.0,0 STARLINK-4796,1 53909U 22119Z   22360.56872050  .00006947  00000-0  45446-3 0  9999,2 53909  53.2155 162.7631 0001674  61.4749 298.6412 15.08814639 14905,6917.958000000001,95.439,540.981,538.665,0.0
53909.0,STARLINK-4796,PAYLOAD,2022-12-26 20:00:28,15.08845901,0.0001565999999999,53.2154,161.5736,59.8213,300.2934,0.00017047,2.426e-05,0.0,0 STARLINK-4796,1 53909U 22119Z   22360.83366896  .00002426  00000-0  17047-3 0  9999,2 53909  53.2154 161.5736 0001566  59.8213 300.2934 15.08845901 15360,6917.861999999999,95.437,540.811,538.644,0.0
53909.0,STARLINK-4796,PAYLOAD,2022-12-27 03:57:24,15.08855513,0.0001589,53.2154,160.0869,58.5583,301.5564,0.00014238,1.98e-05,0.0,0 STARLINK-4796,1 53909U 22119Z   22361.16486156  .00001980  00000-0  14238-3 0  9991,2 53909  53.2154 160.0869 0001589  58.5583 301.5564 15.08855513 14993,6917.833000000001,95.437,540.797,538.599,0.0
53909.0,STARLINK-4796,PAYLOAD,2022-12-27 16:40:29,15.08850417,0.0001633,53.2154,157.7077,59.5227,300.5926,6.0752e-05,6.79e-06,0.0,0 STARLINK-4796,1 53909U 22119Z   22361.69478321  .00000679  00000-0  60752-4 0  9991,2 53909  53.2154 157.7077 0001633  59.5227 300.5926 15.08850417 15072,6917.849,95.437,540.8430000000002,538.5840000000002,0.0
53909.0,STARLINK-4796,PAYLOAD,2022-12-27 18:15:52,15.088517,0.0001671,53.2155,157.4104,59.6228,300.4929,6.7319e-05,7.84e-06,0.0,0 STARLINK-4796,1 53909U 22119Z   22361.76102176  .00000784  00000-0  67319-4 0  9994,2 53909  53.2155 157.4104 0001671  59.6228 300.4929 15.08851700 15501,6917.845,95.437,540.866,538.554,0.0
53909.0,STARLINK-4796,PAYLOAD,2022-12-28 13:20:29,15.08846495,0.0001598,53.2153,153.8398,60.7468,299.3684,-4.0839e-05,-9.38e-06,0.0,0 STARLINK-4796,1 53909U 22119Z   22362.55590234 -.00000938  00000-0 -40839-4 0  9999,2 53909  53.2153 153.8398 0001598  60.7468 299.3684 15.08846495 15207,6917.861,95.437,540.831,538.62,0.0
53909.0,STARLINK-4796,PAYLOAD,2022-12-28 19:42:03,15.08838328,0.000174,53.2155,152.6513,55.9103,304.2054,-0.00015635,-2.775e-05,0.0,0 STARLINK-4796,1 53909U 22119Z   22362.82087118 -.00002775  00000-0 -15635-3 0  9997,2 53909  53.2155 152.6513 0001740  55.9103 304.2054 15.08838328 15669,6917.885,95.438,540.9540000000002,538.547,0.0
53909.0,STARLINK-4796,PAYLOAD,2022-12-29 10:00:31,15.08837989,0.0001419,53.216,149.9746,61.5921,298.5214,-8.3259e-05,-1.613e-05,0.0,0 STARLINK-4796,1 53909U 22119Z   22363.41702684 -.00001613  00000-0 -83259-4 0  9993,2 53909  53.2160 149.9746 0001419  61.5921 298.5214 15.08837989 15751,6917.887,95.438,540.7330000000002,538.77,0.0
53909.0,STARLINK-4796,PAYLOAD,2022-12-29 16:22:03,15.08842268,0.0001564,53.2154,148.7862,60.0629,300.0518,-4.688300000000001e-05,-1.034e-05,0.0,0 STARLINK-4796,1 53909U 22119Z   22363.68198307 -.00001034  00000-0 -46883-4 0  9992,2 53909  53.2154 148.7862 0001564  60.0629 300.0518 15.08842268 15370,6917.873000000001,95.437,540.82,538.6569999999998,0.0
53909.0,STARLINK-4796,PAYLOAD,2022-12-29 21:08:12,15.08845643,0.0001689,53.2152,147.895,55.6928,304.4224,-1.3500999999999997e-05,-5.03e-06,0.0,0 STARLINK-4796,1 53909U 22119Z   22363.88070014 -.00000503  00000-0 -13501-4 0  9999,2 53909  53.2152 147.8950 0001689  55.6928 304.4224 15.08845643 15828,6917.863,95.437,540.8969999999998,538.56,0.0
53909.0,STARLINK-4796,PAYLOAD,2022-12-30 19:23:36,15.08839393,0.0001704,53.2151,143.7319,53.9997,306.1153,0.00015476,2.176e-05,0.0,0 STARLINK-4796,1 53909U 22119Z   22364.80805778  .00002176  00000-0  15476-3 0  9993,2 53909  53.2151 143.7319 0001704  53.9997 306.1153 15.08839393 15540,6917.882,95.438,540.9259999999998,538.568,0.0
53909.0,STARLINK-4796,PAYLOAD,2022-12-31 09:42:03,15.08850668,0.000172,53.2152,141.0555,54.7876,305.3277,0.00014625,2.041e-05,0.0,0 STARLINK-4796,1 53909U 22119Z   22365.40420910  .00002041  00000-0  14625-3 0  9997,2 53909  53.2152 141.0555 0001720  54.7876 305.3277 15.08850668 15633,6917.848000000001,95.437,540.903,538.523,0.0
53909.0,STARLINK-4796,PAYLOAD,2022-12-31 16:03:36,15.08840094,0.0001719,53.2154,139.866,54.4388,305.6764,5.5842e-05,6.01e-06,0.0,0 STARLINK-4796,1 53909U 22119Z   22365.66917767  .00000601  00000-0  55842-4 0  9993,2 53909  53.2154 139.8660 0001719  54.4388 305.6764 15.08840094 16097,6917.88,95.438,540.934,538.556,0.0
53909.0,STARLINK-4796,PAYLOAD,2023-01-01 01:35:56,15.08828947,0.0001766,53.2157,138.0827,53.018,307.0974,-1.2911e-05,-4.93e-06,0.0,0 STARLINK-4796,1 53909U 22119Z   23001.06662822 -.00000493  00000-0 -12911-4 0  9995,2 53909  53.2157 138.0827 0001766  53.0180 307.0974 15.08828947 15735,6917.9140000000025,95.438,541.001,538.557,0.0
53909.0,STARLINK-4796,PAYLOAD,2023-01-01 09:32:52,15.08835849,0.000168,53.2155,136.5954,47.8441,312.2693,-4.9504e-05,-1.076e-05,0.0,0 STARLINK-4796,1 53909U 22119Z   23001.39782429 -.00001076  00000-0 -49504-4 0  9993,2 53909  53.2155 136.5954 0001680  47.8441 312.2693 15.08835849 15783,6917.893,95.438,540.92,538.596,0.0
53909.0,STARLINK-4796,PAYLOAD,2023-01-01 15:54:23,15.08874557,0.0001557,53.2157,135.4064,44.7172,315.3945,-0.00039234,-6.533e-05,0.0,0 STARLINK-4796,1 53909U 22119Z   23001.66277295 -.00006533  00000-0 -39234-3 0  9994,2 53909  53.2157 135.4064 0001557  44.7172 315.3945 15.08874557 15823,6917.775,95.435,540.717,538.563,0.0
53909.0,STARLINK-4796,PAYLOAD,2023-01-01 19:05:10,15.08852777,0.0001678,53.2161,134.8115,53.3291,306.7855,-0.00030251,-5.101e-05,0.0,0 STARLINK-4796,1 53909U 22119Z   23001.79526212 -.00005101  00000-0 -30251-3 0  9994,2 53909  53.2161 134.8115 0001678  53.3291 306.7855 15.08852777 16263,6917.840999999999,95.437,540.867,538.5459999999998,0.0
